{
  "type": "FeatureCollection",
  "features": [
    {
      "type": "Feature",
      "properties": {
        "norad_id": 66550,
        "name": "CZ-7A R/B",
        "group": "last-30-days",
        "lat": -12.502814814350286,
        "lon": -152.57920996936062,
        "alt_km": 7091.383002434107,
        "timestamp": "2025-12-17T21:39:44.490349+00:00",
        "meta_object_name": "CZ-7A R/B",
        "meta_object_id": "2025-277B",
        "meta_epoch": "2025-12-12T23:59:46.063680",
        "meta_mean_motion": 2.69999213,
        "meta_eccentricity": 0.70164962,
        "meta_inclination": 14.3833,
        "meta_ra_of_asc_node": 269.7494,
        "meta_arg_of_pericenter": 189.2871,
        "meta_mean_anomaly": 143.2042,
        "meta_ephemeris_type": 0,
        "meta_classification_type": "U",
        "meta_norad_cat_id": 66550,
        "meta_element_set_no": 999,
        "meta_rev_at_epoch": 35,
        "meta_bstar": 0.0022608485,
        "meta_mean_motion_dot": 0.01807848,
        "meta_mean_motion_ddot": -2.55676e-07,
        "tle_line1": "1 66550U 25277B   25346.99983870  .01807848 -25568-6  22608-2 0  9997",
        "tle_line2": "2 66550  14.3833 269.7494 7016496 189.2871 143.2042  2.69999213   350"
      },
      "geometry": {
        "type": "Point",
        "coordinates": [
          -152.57920996936062,
          -12.502814814350286
        ]
      }
    },
    {
      "type": "Feature",
      "properties": {
        "norad_id": 66554,
        "name": "GLOBAL-33",
        "group": "last-30-days",
        "lat": 34.173331717190685,
        "lon": 158.25181334208708,
        "alt_km": 462.9451423648334,
        "timestamp": "2025-12-17T21:39:44.490368+00:00",
        "meta_object_name": "GLOBAL-33",
        "meta_object_id": "2025-267A",
        "meta_epoch": "2025-12-17T13:18:13.514112",
        "meta_mean_motion": 15.31652128,
        "meta_eccentricity": 0.00034795,
        "meta_inclination": 42.0221,
        "meta_ra_of_asc_node": 29.198,
        "meta_arg_of_pericenter": 114.7886,
        "meta_mean_anomaly": 245.3313,
        "meta_ephemeris_type": 0,
        "meta_classification_type": "U",
        "meta_norad_cat_id": 66554,
        "meta_element_set_no": 999,
        "meta_rev_at_epoch": 414,
        "meta_bstar": 0.00033723596,
        "meta_mean_motion_dot": 0.00010293,
        "meta_mean_motion_ddot": 0,
        "tle_line1": "1 66554U 25267A   25351.55432308  .00010293  00000+0  33724-3 0  9990",
        "tle_line2": "2 66554  42.0221  29.1980 0003479 114.7886 245.3313 15.31652128  4140"
      },
      "geometry": {
        "type": "Point",
        "coordinates": [
          158.25181334208708,
          34.173331717190685
        ]
      }
    },
    {
      "type": "Feature",
      "properties": {
        "norad_id": 66555,
        "name": "ELECTRON KICK STAGE R/B",
        "group": "last-30-days",
        "lat": -21.238970986783116,
        "lon": -127.45844126627443,
        "alt_km": 470.7811533979648,
        "timestamp": "2025-12-17T21:39:44.490378+00:00",
        "meta_object_name": "ELECTRON KICK STAGE R/B",
        "meta_object_id": "2025-267B",
        "meta_epoch": "2025-12-17T14:29:06.909216",
        "meta_mean_motion": 15.33044085,
        "meta_eccentricity": 0.0006678,
        "meta_inclination": 42.0197,
        "meta_ra_of_asc_node": 28.6999,
        "meta_arg_of_pericenter": 92.8564,
        "meta_mean_anomaly": 267.3039,
        "meta_ephemeris_type": 0,
        "meta_classification_type": "U",
        "meta_norad_cat_id": 66555,
        "meta_element_set_no": 999,
        "meta_rev_at_epoch": 415,
        "meta_bstar": 0.00061399448,
        "meta_mean_motion_dot": 0.00019838,
        "meta_mean_motion_ddot": 0,
        "tle_line1": "1 66555U 25267B   25351.60355219  .00019838  00000+0  61399-3 0  9995",
        "tle_line2": "2 66555  42.0197  28.6999 0006678  92.8564 267.3039 15.33044085  4159"
      },
      "geometry": {
        "type": "Point",
        "coordinates": [
          -127.45844126627443,
          -21.238970986783116
        ]
      }
    },
    {
      "type": "Feature",
      "properties": {
        "norad_id": 66557,
        "name": "STARLINK-35699",
        "group": "last-30-days",
        "lat": 18.171557572093405,
        "lon": -109.61914727346114,
        "alt_km": 412.5607899967317,
        "timestamp": "2025-12-17T21:39:44.490389+00:00",
        "meta_object_name": "STARLINK-35699",
        "meta_object_id": "2025-268A",
        "meta_epoch": "2025-12-17T14:49:23.077344",
        "meta_mean_motion": 15.5056663,
        "meta_eccentricity": 0.00014062,
        "meta_inclination": 43.0006,
        "meta_ra_of_asc_node": 92.672,
        "meta_arg_of_pericenter": 273.5065,
        "meta_mean_anomaly": 86.5634,
        "meta_ephemeris_type": 0,
        "meta_classification_type": "U",
        "meta_norad_cat_id": 66557,
        "meta_element_set_no": 999,
        "meta_rev_at_epoch": 538,
        "meta_bstar": 0.0015477021,
        "meta_mean_motion_dot": 0.00091482,
        "meta_mean_motion_ddot": 0,
        "tle_line1": "1 66557U 25268A   25351.61762821  .00091482  00000+0  15477-2 0  9990",
        "tle_line2": "2 66557  43.0006  92.6720 0001406 273.5065  86.5634 15.50566630  5384"
      },
      "geometry": {
        "type": "Point",
        "coordinates": [
          -109.61914727346114,
          18.171557572093405
        ]
      }
    },
    {
      "type": "Feature",
      "properties": {
        "norad_id": 66558,
        "name": "STARLINK-35695",
        "group": "last-30-days",
        "lat": 17.038638148704493,
        "lon": -108.20013299051838,
        "alt_km": 413.9400729420495,
        "timestamp": "2025-12-17T21:39:44.490399+00:00",
        "meta_object_name": "STARLINK-35695",
        "meta_object_id": "2025-268B",
        "meta_epoch": "2025-12-17T08:37:54.156576",
        "meta_mean_motion": 15.50579494,
        "meta_eccentricity": 0.00036126,
        "meta_inclination": 43.0011,
        "meta_ra_of_asc_node": 94.1767,
        "meta_arg_of_pericenter": 287.7375,
        "meta_mean_anomaly": 72.3091,
        "meta_ephemeris_type": 0,
        "meta_classification_type": "U",
        "meta_norad_cat_id": 66558,
        "meta_element_set_no": 999,
        "meta_rev_at_epoch": 534,
        "meta_bstar": 0.0009773811,
        "meta_mean_motion_dot": 0.00057429,
        "meta_mean_motion_ddot": 0,
        "tle_line1": "1 66558U 25268B   25351.35965459  .00057429  00000+0  97738-3 0  9998",
        "tle_line2": "2 66558  43.0011  94.1767 0003612 287.7375  72.3091 15.50579494  5349"
      },
      "geometry": {
        "type": "Point",
        "coordinates": [
          -108.20013299051838,
          17.038638148704493
        ]
      }
    },
    {
      "type": "Feature",
      "properties": {
        "norad_id": 66559,
        "name": "STARLINK-35419",
        "group": "last-30-days",
        "lat": 15.598040460734392,
        "lon": -106.4366249652269,
        "alt_km": 413.09426368804634,
        "timestamp": "2025-12-17T21:39:44.490408+00:00",
        "meta_object_name": "STARLINK-35419",
        "meta_object_id": "2025-268C",
        "meta_epoch": "2025-12-17T07:04:36.604704",
        "meta_mean_motion": 15.50608017,
        "meta_eccentricity": 0.0001894,
        "meta_inclination": 42.9993,
        "meta_ra_of_asc_node": 94.5526,
        "meta_arg_of_pericenter": 288.6146,
        "meta_mean_anomaly": 71.4508,
        "meta_ephemeris_type": 0,
        "meta_classification_type": "U",
        "meta_norad_cat_id": 66559,
        "meta_element_set_no": 999,
        "meta_rev_at_epoch": 533,
        "meta_bstar": 0.0014357802,
        "meta_mean_motion_dot": 0.00084897,
        "meta_mean_motion_ddot": 0,
        "tle_line1": "1 66559U 25268C   25351.29486811  .00084897  00000+0  14358-2 0  9997",
        "tle_line2": "2 66559  42.9993  94.5526 0001894 288.6146  71.4508 15.50608017  5336"
      },
      "geometry": {
        "type": "Point",
        "coordinates": [
          -106.4366249652269,
          15.598040460734392
        ]
      }
    },
    {
      "type": "Feature",
      "properties": {
        "norad_id": 66560,
        "name": "STARLINK-35411",
        "group": "last-30-days",
        "lat": 14.403026110222072,
        "lon": -105.00719898023063,
        "alt_km": 413.3171705467448,
        "timestamp": "2025-12-17T21:39:44.490417+00:00",
        "meta_object_name": "STARLINK-35411",
        "meta_object_id": "2025-268D",
        "meta_epoch": "2025-12-17T08:36:52.860096",
        "meta_mean_motion": 15.5060797,
        "meta_eccentricity": 0.00021717,
        "meta_inclination": 42.9992,
        "meta_ra_of_asc_node": 94.1718,
        "meta_arg_of_pericenter": 280.8455,
        "meta_mean_anomaly": 79.2161,
        "meta_ephemeris_type": 0,
        "meta_classification_type": "U",
        "meta_norad_cat_id": 66560,
        "meta_element_set_no": 999,
        "meta_rev_at_epoch": 534,
        "meta_bstar": 0.0011053151,
        "meta_mean_motion_dot": 0.00065113,
        "meta_mean_motion_ddot": 0,
        "tle_line1": "1 66560U 25268D   25351.35894514  .00065113  00000+0  11053-2 0  9998",
        "tle_line2": "2 66560  42.9992  94.1718 0002171 280.8455  79.2161 15.50607970  5341"
      },
      "geometry": {
        "type": "Point",
        "coordinates": [
          -105.00719898023063,
          14.403026110222072
        ]
      }
    }
  ]
}